OBJECT_NAME,OBJECT_ID,EPOCH,MEAN_MOTION,ECCENTRICITY,INCLINATION,RA_OF_ASC_NODE,ARG_OF_PERICENTER,MEAN_ANOMALY,EPHEMERIS_TYPE,CLASSIFICATION_TYPE,NORAD_CAT_ID,ELEMENT_SET_NO,REV_AT_EPOCH,BSTAR,MEAN_MOTION_DOT,MEAN_MOTION_DDOT
SL-16 R/B,1994-077B,2026-06-16T08:14:32.371872,14.15571925,.00028832,70.9809,144.9374,328.6027,31.4923,0,U,23405,999,63019,.49330799E-4,.49E-6,0
ARIANE 40+ R/B,1995-021B,2026-06-16T11:43:43.532256,14.39832991,.00064013,98.4412,237.5737,195.7313,175.1128,0,U,23561,999,63346,.83220747E-4,.218E-5,0
SL-16 R/B,1995-058B,2026-06-16T13:36:44.605152,14.15508162,.00137336,71.0220,332.6601,321.3614,38.6525,0,U,23705,999,58184,.17001982E-3,.285E-5,0
SL-16 R/B,1996-051B,2026-06-16T14:33:16.606944,14.12445673,.00154183,70.7641,325.8777,337.7535,22.2914,0,U,24298,999,53561,.82884959E-4,.104E-5,0
ORBVIEW 2 (SEASTAR),1997-037A,2026-06-16T11:05:49.712352,14.35552984,.00031669,98.8686,334.4613,117.6528,242.4978,0,U,24883,999,52264,.73139115E-4,.164E-5,0
SL-16 R/B,1998-043G,2026-06-16T10:49:10.468704,14.26068519,.00109446,98.8363,121.6036,88.2290,272.0143,0,U,25400,999,45306,.33630604E-4,.35E-6,0
SL-16 R/B,1998-045B,2026-06-16T14:24:18.277920,14.16203398,.00094353,71.0118,333.5643,242.1911,117.8257,0,U,25407,999,44110,-.10251175E-3,-.251E-5,0
ISS (ZARYA),1998-067A,2026-06-16T11:31:07.496832,15.49257994,.00047957,51.6336,303.5935,192.9278,167.1588,0,U,25544,999,57164,.1327554E-3,.6936E-4,0
CZ-4B R/B,1999-025C,2026-06-16T14:01:51.866976,14.18283397,.00380854,98.6483,209.4383,61.3531,55.5923,0,U,25732,999,40218,.39394471E-4,.39E-6,0
OKEAN-O,1999-039A,2026-06-16T14:29:53.111616,14.80466650,.00016234,97.9318,226.4087,72.2580,287.8809,0,U,25860,999,44902,.71889451E-4,.498E-5,0
SL-16 R/B,1999-039B,2026-06-16T03:41:22.473312,14.81844296,.0013529,97.9838,226.0197,300.6154,59.3724,0,U,25861,999,45144,.59739292E-4,.419E-5,0
DELTA 2 R/B,1999-041E,2026-06-16T12:55:18.312960,14.12015127,.05008512,51.7657,266.3886,280.0985,74.3822,0,U,25876,999,37699,.12068564E-3,.514E-5,0
HELIOS 1B,1999-064A,2026-06-16T07:18:24.392736,14.88004699,.00024833,98.1615,72.4187,92.5313,267.6187,0,U,25977,999,69992,.13565437E-3,.1186E-4,0
TERRA,1999-068A,2026-06-16T14:49:15.305664,14.61102711,.00015356,97.9457,217.1863,191.4491,287.0272,0,U,25994,999,40952,.74431795E-4,.322E-5,0
SL-16 R/B,2000-006B,2026-06-16T13:41:42.956448,14.15834050,.00155015,71.0021,249.9215,23.9038,336.2802,0,U,26070,999,36255,-.13298782E-4,-.74E-6,0
TITAN 4B R/B,2000-047B,2026-06-16T14:19:10.796736,15.10194436,.00457137,67.9881,122.2352,287.7476,71.8687,0,U,26474,999,40784,.15488732E-3,.2458E-4,0
ENVISAT,2002-009A,2026-06-16T15:28:43.185792,14.39064664,.0001353,98.3834,118.9754,88.9448,83.8110,0,U,27386,999,27340,.3345021E-4,.6E-6,0
IDEFIX & ARIANE 42P R/B,2002-021B,2026-06-16T13:41:08.088000,14.31081792,.00105782,98.5942,105.0600,255.9330,104.0677,0,U,27422,999,25816,.78214279E-4,.162E-5,0
AQUA,2002-022A,2026-06-16T14:08:58.492896,14.62157357,.00011258,98.4277,136.8604,52.9778,84.0784,0,U,27424,999,28318,.13636605E-3,.637E-5,0
CZ-4B R/B,2002-024C,2026-06-16T14:45:37.748736,14.14564374,.0051188,98.8700,220.4390,101.8294,16.7039,0,U,27432,999,24322,.40984709E-4,.36E-6,0
MIDORI II (ADEOS-II),2002-056A,2026-06-16T12:11:35.600352,14.29349248,.00022136,98.7878,126.7620,77.9439,282.1990,0,U,27597,999,22441,.94737649E-4,.196E-5,0
H-2A R/B,2002-056E,2026-06-16T14:45:35.110944,14.33821793,.00691606,98.3311,124.3103,226.3024,307.6527,0,U,27601,999,22828,.65035454E-4,.144E-5,0
CZ-4B R/B,2003-049C,2026-06-16T13:02:46.875840,14.55099764,.00469833,98.6896,166.3644,290.6158,69.0002,0,U,28059,999,20097,.62754969E-4,.222E-5,0
CZ-2C R/B,2004-012C,2026-06-16T11:06:44.553024,15.78862741,.00093017,97.7085,243.0419,286.5844,73.4400,0,U,28222,999,21978,.50344415E-3,.89295E-3,0
SL-16 R/B,2004-021B,2026-06-16T14:17:38.753952,14.14608584,.00072966,71.0008,24.9307,255.7759,104.2553,0,U,28353,999,13682,-.10882428E-3,-.257E-5,0
CZ-4B R/B,2004-035C,2026-06-16T14:37:50.731680,15.30619579,.00299571,97.3361,200.6896,340.0811,19.9258,0,U,28415,999,19503,.20165763E-3,.5972E-4,0
CZ-2C R/B,2004-046B,2026-06-16T11:46:05.259360,14.27026335,.01384568,98.1946,76.3147,222.3440,136.6990,0,U,28480,999,12259,.3628553E-4,.56E-6,0
ARIANE 5 R/B,2004-049H,2026-06-16T10:57:34.084800,14.85448291,.00845411,98.2719,339.6812,31.7760,328.8516,0,U,28499,999,16045,.6742051E-4,.555E-5,0
CZ-2D R/B,2005-024B,2026-06-16T13:57:43.159392,15.69491674,.00035321,97.3475,186.9800,55.4518,304.7077,0,U,28738,999,15524,.40174392E-3,.47281E-3,0
ALOS (DAICHI),2006-002A,2026-06-16T14:44:14.872128,14.70049317,.00014794,98.1323,123.1831,58.1417,301.9933,0,U,28931,999,8801,.15230234E-3,.865E-5,0
