SL-16 R/B               
1 23405U 94077B   26167.34343023  .00000049  00000+0  49331-4 0  9991
2 23405  70.9809 144.9374 0002883 328.6027  31.4923 14.15571925630191
ARIANE 40+ R/B          
1 23561U 95021B   26167.48869829  .00000218  00000+0  83221-4 0  9990
2 23561  98.4412 237.5737 0006401 195.7313 175.1128 14.39832991633467
SL-16 R/B               
1 23705U 95058B   26167.56718293  .00000285  00000+0  17002-3 0  9994
2 23705  71.0220 332.6601 0013733 321.3614  38.6525 14.15508162581847
SL-16 R/B               
1 24298U 96051B   26167.60644221  .00000104  00000+0  82885-4 0  9992
2 24298  70.7641 325.8777 0015418 337.7535  22.2914 14.12445673535610
ORBVIEW 2 (SEASTAR)     
1 24883U 97037A   26167.46238093  .00000164  00000+0  73139-4 0  9995
2 24883  98.8686 334.4613 0003166 117.6528 242.4978 14.35552984522643
SL-16 R/B               
1 25400U 98043G   26167.45081561  .00000035  00000+0  33631-4 0  9994
2 25400  98.8363 121.6036 0010944  88.2290 272.0143 14.26068519453065
SL-16 R/B               
1 25407U 98045B   26167.60021155 -.00000251  00000+0 -10251-3 0  9997
2 25407  71.0118 333.5643 0009435 242.1911 117.8257 14.16203398441104
ISS (ZARYA)             
1 25544U 98067A   26167.47994788  .00006936  00000+0  13276-3 0  9993
2 25544  51.6336 303.5935 0004795 192.9278 167.1588 15.49257994571641
CZ-4B R/B               
1 25732U 99025C   26167.58462809  .00000039  00000+0  39394-4 0  9991
2 25732  98.6483 209.4383 0038085  61.3531  55.5923 14.18283397402181
OKEAN-O                 
1 25860U 99039A   26167.60408694  .00000498  00000+0  71889-4 0  9997
2 25860  97.9318 226.4087 0001623  72.2580 287.8809 14.80466650449026
SL-16 R/B               
1 25861U 99039B   26167.15373233  .00000419  00000+0  59739-4 0  9991
2 25861  97.9838 226.0197 0013529 300.6154  59.3724 14.81844296451449
DELTA 2 R/B             
1 25876U 99041E   26167.53840640  .00000514  00000+0  12069-3 0  9993
2 25876  51.7657 266.3886 0500851 280.0985  74.3822 14.12015127376995
HELIOS 1B               
1 25977U 99064A   26167.30444899  .00001186  00000+0  13565-3 0  9999
2 25977  98.1615  72.4187 0002483  92.5313 267.6187 14.88004699699922
TERRA                   
1 25994U 99068A   26167.61753826  .00000322  00000+0  74432-4 0  9991
2 25994  97.9457 217.1863 0001535 191.4491 287.0272 14.61102711409525
SL-16 R/B               
1 26070U 00006B   26167.57063607 -.00000074  00000+0 -13299-4 0  9997
2 26070  71.0021 249.9215 0015501  23.9038 336.2802 14.15834050362553
TITAN 4B R/B            
1 26474U 00047B   26167.59665274  .00002458  00000+0  15489-3 0  9998
2 26474  67.9881 122.2352 0045713 287.7476  71.8687 15.10194436407846
ENVISAT                 
1 27386U 02009A   26167.64494428  .00000060  00000+0  33450-4 0  9994
2 27386  98.3834 118.9754 0001353  88.9448  83.8110 14.39064664273401
IDEFIX & ARIANE 42P R/B 
1 27422U 02021B   26167.57023250  .00000162  00000+0  78214-4 0  9992
2 27422  98.5942 105.0600 0010578 255.9330 104.0677 14.31081792258169
AQUA                    
1 27424U 02022A   26167.58956589  .00000637  00000+0  13637-3 0  9990
2 27424  98.4277 136.8604 0001125  52.9778  84.0784 14.62157357283187
CZ-4B R/B               
1 27432U 02024C   26167.61502024  .00000036  00000+0  40985-4 0  9996
2 27432  98.8700 220.4390 0051188 101.8294  16.7039 14.14564374243228
MIDORI II (ADEOS-II)    
1 27597U 02056A   26167.50805093  .00000196  00000+0  94738-4 0  9995
2 27597  98.7878 126.7620 0002213  77.9439 282.1990 14.29349248224410
H-2A R/B                
1 27601U 02056E   26167.61498971  .00000144  00000+0  65035-4 0  9997
2 27601  98.3311 124.3103 0069160 226.3024 307.6527 14.33821793228281
CZ-4B R/B               
1 28059U 03049C   26167.54359810  .00000222  00000+0  62755-4 0  9991
2 28059  98.6896 166.3644 0046983 290.6158  69.0002 14.55099764200978
CZ-2C R/B               
1 28222U 04012C   26167.46301566  .00089295  00000+0  50344-3 0  9997
2 28222  97.7085 243.0419 0009301 286.5844  73.4400 15.78862741219781
SL-16 R/B               
1 28353U 04021B   26167.59558743 -.00000257  00000+0 -10882-3 0  9993
2 28353  71.0008  24.9307 0007296 255.7759 104.2553 14.14608584136829
CZ-4B R/B               
1 28415U 04035C   26167.60961495  .00005972  00000+0  20166-3 0  9994
2 28415  97.3361 200.6896 0029957 340.0811  19.9258 15.30619579195039
CZ-2C R/B               
1 28480U 04046B   26167.49033865  .00000056  00000+0  36286-4 0  9995
2 28480  98.1946  76.3147 0138456 222.3440 136.6990 14.27026335122599
ARIANE 5 R/B            
1 28499U 04049H   26167.45664450  .00000555  00000+0  67421-4 0  9993
2 28499  98.2719 339.6812 0084541  31.7760 328.8516 14.85448291160453
CZ-2D R/B               
1 28738U 05024B   26167.58174953  .00047281  00000+0  40174-3 0  9993
2 28738  97.3475 186.9800 0003532  55.4518 304.7077 15.69491674155245
ALOS (DAICHI)           
1 28931U 06002A   26167.61406102  .00000865  00000+0  15230-3 0  9995
2 28931  98.1323 123.1831 0001479  58.1417 301.9933 14.70049317 88018
